FREGAT R/B              
1 42720U 17027B   26073.36157428 -.00000962  00000+0  50935-2 0  9997
2 42720  62.5016 244.9397 7127612 266.9645  16.9458  2.01924447 64915
QZS-2 (MICHIBIKI-2)     
1 42738U 17028A   26095.27195000 -.00000203  00000+0  00000+0 0  9992
2 42738  39.5436 244.2157 0742095 270.6147 276.4746  1.00253447  6890
VIASAT-2                
1 42740U 17029A   26095.51723825 -.00000264  00000+0  00000+0 0  9992
2 42740   0.0195 258.5085 0000475 139.1488 272.4575  1.00271835 32472
EUTELSAT 172B           
1 42741U 17029B   26095.54906097 -.00000004  00000+0  00000+0 0  9992
2 42741   0.0173 170.4613 0000179 313.6058  79.4496  1.00273529 33011
GSAT-19                 
1 42747U 17031A   26095.54055168  .00000127  00000+0  00000+0 0  9990
2 42747   0.0962  84.8128 0005508 322.8842  28.5705  1.00271444 32411
ECHOSTAR 21             
1 42749U 17032A   26095.33655757  .00000066  00000+0  00000+0 0  9992
2 42749   1.7845 350.9119 0002511  22.0570 312.0896  1.00274274 32366
ZHONGXING-9A            
1 42763U 17035A   26095.61484957  .00000116  00000+0  00000+0 0  9990
2 42763   4.7985  76.1114 0006097 294.5342 103.0855  0.99778672 32932
BULGARIASAT-1           
1 42801U 17038A   26095.22822667  .00000013  00000+0  00000+0 0  9993
2 42801   0.0552  79.8892 0003408 311.1245 246.5740  1.00274567 32111
HELLAS-SAT 3            
1 42814U 17040A   26095.53881835  .00000154  00000+0  00000+0 0  9992
2 42814   0.0637  36.3627 0005290 345.2631  45.1806  1.00270557 32077
GSAT-17                 
1 42815U 17040B   26095.63428637 -.00000256  00000+0  00000+0 0  9995
2 42815   0.0688  75.5560 0003998 233.6180 206.5923  1.00273266 32069
INTELSAT 35E (IS-35E)   
1 42818U 17041A   26095.23901653 -.00000237  00000+0  00000+0 0  9998
2 42818   0.0159 217.4245 0002132 159.2084 228.4468  1.00272847 32080
FALCON 9 R/B            
1 42819U 17041B   26091.26804928  .00002112  00000+0  95540-3 0  9995
2 42819  25.3059 205.6359 7468350  34.3853 356.3100  2.04503922 61809
COSMOS 2520             
1 42907U 17046A   26095.53994501  .00000138  00000+0  00000+0 0  9998
2 42907   0.0253 123.5794 0000203   4.3432 305.3136  1.00270664 31669
BREEZE-M R/B            
1 42909U 17046C   26094.88175944 -.00000159  00000+0  00000+0 0  9993
2 42909   8.4923  68.9479 0756349 159.8667 203.3649  0.90332506 28499
TDRS 13                 
1 42915U 17047A   26095.24352319 -.00000098  00000+0  00000+0 0  9997
2 42915   3.4359   0.8798 0012156  97.1842 171.6757  1.00272481 31615
QZS-3 (MICHIBIKI-3)     
1 42917U 17048A   26095.55623840 -.00000346  00000+0  00000+0 0  9990
2 42917   0.0647 143.4164 0002129 236.5566 141.1643  1.00271047 31536
AMAZONAS 5              
1 42934U 17053A   26095.51897159 -.00000281  00000+0  00000+0 0  9995
2 42934   0.0432 310.4025 0004765  40.6967 328.5445  1.00269112 31313
